CCSDS_OMM_VERS = 2.0
CREATION_DATE  = 
ORIGINATOR     = 

OBJECT_NAME    = XRISM
OBJECT_ID      = 2023-137A
CENTER_NAME    = EARTH
REF_FRAME      = TEME
TIME_SYSTEM    = UTC
MEAN_ELEMENT_THEORY = SGP/SGP4

EPOCH          = 2026-03-11T21:15:38.628000
MEAN_MOTION    = 15.11527066
ECCENTRICITY   = .0007901
INCLINATION    = 31.0013
RA_OF_ASC_NODE = 269.4586
ARG_OF_PERICENTER = 60.8990
MEAN_ANOMALY   = 299.2439

EPHEMERIS_TYPE = 0
CLASSIFICATION_TYPE = U
NORAD_CAT_ID   = 57800
ELEMENT_SET_NO = 999
REV_AT_EPOCH   = 13812
BSTAR          = .29088E-3
MEAN_MOTION_DOT = .5152E-4
MEAN_MOTION_DDOT = 0

CCSDS_OMM_VERS = 2.0
CREATION_DATE  = 
ORIGINATOR     = 

OBJECT_NAME    = ACS3
OBJECT_ID      = 2024-077B
CENTER_NAME    = EARTH
REF_FRAME      = TEME
TIME_SYSTEM    = UTC
MEAN_ELEMENT_THEORY = SGP/SGP4

EPOCH          = 2026-03-11T19:14:55.101696
MEAN_MOTION    = 13.89725910
ECCENTRICITY   = .0061286
INCLINATION    = 97.2057
RA_OF_ASC_NODE = 11.4388
ARG_OF_PERICENTER = 71.3959
MEAN_ANOMALY   = 289.3847

EPHEMERIS_TYPE = 0
CLASSIFICATION_TYPE = U
NORAD_CAT_ID   = 59588
ELEMENT_SET_NO = 999
REV_AT_EPOCH   = 9449
BSTAR          = .24194E-1
MEAN_MOTION_DOT = .3022E-3
MEAN_MOTION_DDOT = 0

CCSDS_OMM_VERS = 2.0
CREATION_DATE  = 
ORIGINATOR     = 

OBJECT_NAME    = SZ-21 MODULE
OBJECT_ID      = 2025-246C
CENTER_NAME    = EARTH
REF_FRAME      = TEME
TIME_SYSTEM    = UTC
MEAN_ELEMENT_THEORY = SGP/SGP4

EPOCH          = 2026-03-11T15:57:45.086688
MEAN_MOTION    = 15.68721611
ECCENTRICITY   = .00012302
INCLINATION    = 41.4734
RA_OF_ASC_NODE = 191.1990
ARG_OF_PERICENTER = 305.0978
MEAN_ANOMALY   = 54.9749

EPHEMERIS_TYPE = 0
CLASSIFICATION_TYPE = U
NORAD_CAT_ID   = 66515
ELEMENT_SET_NO = 999
REV_AT_EPOCH   = 1838
BSTAR          = .36182576E-3
MEAN_MOTION_DOT = .42405E-3
MEAN_MOTION_DDOT = 0

