XRISM                   
1 57800U 23137A   26070.88586375  .00005152  00000+0  29088-3 0  9993
2 57800  31.0013 269.4586 0007900  60.8990 299.2439 15.11527066138125
ACS3                    
1 59588U 24077B   26070.80202665  .00030220  00000+0  24194-1 0  9996
2 59588  97.2057  11.4388 0061286  71.3959 289.3847 13.89725910 94491
SZ-21 MODULE            
1 66515U 25246C   26070.66510517  .00042405  00000+0  36183-3 0  9996
2 66515  41.4734 191.1990 0001230 305.0978  54.9749 15.68721611 18382
